{
  "norad_id": 61016,
  "name": "GEESAT-3 06",
  "history": [
    {
      "epoch": "2026-04-30T13:47:22.597440Z",
      "apogee_km": 628.2204553558395,
      "perigee_km": 604.8114503185798,
      "latitude_deg": 3.721911689571382e-05,
      "longitude_deg": -121.19318002817947,
      "height_km": 620.1829982133364,
      "semi_major_axis_km": 6994.652952837209,
      "eccentricity": 0.00167335,
      "inclination_deg": 49.9978,
      "raan_deg": 304.1703,
      "arg_perigee_deg": 254.5249,
      "mean_anomaly_deg": 105.3842,
      "mean_motion_rev_day": 14.84066989
    },
    {
      "epoch": "2026-05-02T09:25:18.746976Z",
      "apogee_km": 628.1939641962945,
      "perigee_km": 604.7731766782426,
      "latitude_deg": 3.227678494503553e-05,
      "longitude_deg": -65.90005637148063,
      "height_km": 618.738776097582,
      "semi_major_axis_km": 6994.620570437268,
      "eccentricity": 0.0016742,
      "inclination_deg": 49.9977,
      "raan_deg": 295.7393,
      "arg_perigee_deg": 261.5956,
      "mean_anomaly_deg": 98.3085,
      "mean_motion_rev_day": 14.84077295
    },
    {
      "epoch": "2026-05-03T19:21:28.346112Z",
      "apogee_km": 628.1882036948855,
      "perigee_km": 604.7283311679203,
      "latitude_deg": 2.0313324040979813e-05,
      "longitude_deg": 137.1089314768238,
      "height_km": 617.6558037434479,
      "semi_major_axis_km": 6994.595267431403,
      "eccentricity": 0.001677,
      "inclination_deg": 49.9977,
      "raan_deg": 289.182,
      "arg_perigee_deg": 266.8035,
      "mean_anomaly_deg": 93.0985,
      "mean_motion_rev_day": 14.84085348
    },
    {
      "epoch": "2026-05-04T19:35:51.989280Z",
      "apogee_km": 628.1692932894539,
      "perigee_km": 604.7178635261671,
      "latitude_deg": -4.2101650864662664e-05,
      "longitude_deg": 127.83106532902544,
      "height_km": 616.852862997496,
      "semi_major_axis_km": 6994.58057840781,
      "eccentricity": 0.0016764,
      "inclination_deg": 49.9978,
      "raan_deg": 284.4982,
      "arg_perigee_deg": 270.6558,
      "mean_anomaly_deg": 89.2459,
      "mean_motion_rev_day": 14.84090023
    },
    {
      "epoch": "2026-05-05T19:50:15.330912Z",
      "apogee_km": 628.1495488476057,
      "perigee_km": 604.7009783151761,
      "latitude_deg": 2.1314375315845432e-05,
      "longitude_deg": 118.5544636980378,
      "height_km": 616.0361570516045,
      "semi_major_axis_km": 6994.562263581391,
      "eccentricity": 0.0016762,
      "inclination_deg": 49.9979,
      "raan_deg": 279.8143,
      "arg_perigee_deg": 274.563,
      "mean_anomaly_deg": 85.3394,
      "mean_motion_rev_day": 14.84095852
    },
    {
      "epoch": "2026-05-06T20:04:38.402976Z",
      "apogee_km": 628.1450675969427,
      "perigee_km": 604.6783566677386,
      "latitude_deg": -3.896571117222736e-05,
      "longitude_deg": 109.27898508771462,
      "height_km": 615.2515151584967,
      "semi_major_axis_km": 6994.54871213234,
      "eccentricity": 0.0016775,
      "inclination_deg": 49.9978,
      "raan_deg": 275.1305,
      "arg_perigee_deg": 278.3503,
      "mean_anomaly_deg": 81.5533,
      "mean_motion_rev_day": 14.84100165
    },
    {
      "epoch": "2026-05-07T20:19:01.263360Z",
      "apogee_km": 628.139607674615,
      "perigee_km": 604.6603459508497,
      "latitude_deg": -2.4403458137322807e-05,
      "longitude_deg": 100.00465366569229,
      "height_km": 614.4684916522964,
      "semi_major_axis_km": 6994.536976812732,
      "eccentricity": 0.0016784,
      "inclination_deg": 49.9976,
      "raan_deg": 270.4469,
      "arg_perigee_deg": 282.1732,
      "mean_anomaly_deg": 77.7326,
      "mean_motion_rev_day": 14.841039
    },
    {
      "epoch": "2026-05-08T18:56:26.416032Z",
      "apogee_km": 628.129217845365,
      "perigee_km": 604.6513875012124,
      "latitude_deg": 5.0822306993185825e-05,
      "longitude_deg": 115.34909045815785,
      "height_km": 613.7491718363243,
      "semi_major_axis_km": 6994.527302673288,
      "eccentricity": 0.0016783,
      "inclination_deg": 49.9987,
      "raan_deg": 266.0752,
      "arg_perigee_deg": 285.7459,
      "mean_anomaly_deg": 74.1629,
      "mean_motion_rev_day": 14.84106979
    },
    {
      "epoch": "2026-05-09T20:47:46.404384Z",
      "apogee_km": 628.1306959355943,
      "perigee_km": 604.6319122411796,
      "latitude_deg": 2.55111803758699e-05,
      "longitude_deg": 81.45783243189709,
      "height_km": 612.9384941615895,
      "semi_major_axis_km": 6994.518304088387,
      "eccentricity": 0.0016798,
      "inclination_deg": 49.9986,
      "raan_deg": 261.0791,
      "arg_perigee_deg": 289.8401,
      "mean_anomaly_deg": 70.0727,
      "mean_motion_rev_day": 14.84109843
    },
    {
      "epoch": "2026-05-10T19:25:11.239968Z",
      "apogee_km": 628.1221134339503,
      "perigee_km": 604.6233585249538,
      "latitude_deg": 1.8211397336854678e-06,
      "longitude_deg": 96.80361316123123,
      "height_km": 612.2477010029253,
      "semi_major_axis_km": 6994.509735979452,
      "eccentricity": 0.0016798,
      "inclination_deg": 49.9986,
      "raan_deg": 256.7075,
      "arg_perigee_deg": 293.4219,
      "mean_anomaly_deg": 66.4953,
      "mean_motion_rev_day": 14.8411257
    },
    {
      "epoch": "2026-05-11T18:02:35.938176Z",
      "apogee_km": 628.1166647440095,
      "perigee_km": 604.6137384462108,
      "latitude_deg": 3.729882432423865e-05,
      "longitude_deg": 112.15001804008787,
      "height_km": 611.5794645288727,
      "semi_major_axis_km": 6994.50220159511,
      "eccentricity": 0.0016801,
      "inclination_deg": 49.9985,
      "raan_deg": 252.3359,
      "arg_perigee_deg": 296.9807,
      "mean_anomaly_deg": 62.9416,
      "mean_motion_rev_day": 14.84114968
    },
    {
      "epoch": "2026-05-12T19:53:55.466016Z",
      "apogee_km": 628.1134583474668,
      "perigee_km": 604.5979738359656,
      "latitude_deg": -3.674546771640746e-05,
      "longitude_deg": 78.26064609145328,
      "height_km": 610.8314022383681,
      "semi_major_axis_km": 6994.492716091716,
      "eccentricity": 0.001681,
      "inclination_deg": 49.9984,
      "raan_deg": 247.3398,
      "arg_perigee_deg": 301.0851,
      "mean_anomaly_deg": 58.8437,
      "mean_motion_rev_day": 14.84117987
    },
    {
      "epoch": "2026-05-13T18:31:19.954272Z",
      "apogee_km": 628.1085226836321,
      "perigee_km": 604.5888650893694,
      "latitude_deg": -5.88871543138827e-05,
      "longitude_deg": 93.60788095082026,
      "height_km": 610.2127346704468,
      "semi_major_axis_km": 6994.4856938865005,
      "eccentricity": 0.0016813,
      "inclination_deg": 49.9983,
      "raan_deg": 242.9682,
      "arg_perigee_deg": 304.6298,
      "mean_anomaly_deg": 55.3054,
      "mean_motion_rev_day": 14.84120222
    },
    {
      "epoch": "2026-05-14T07:26:59.623584Z",
      "apogee_km": 628.1079800074149,
      "perigee_km": 604.5805035647945,
      "latitude_deg": 6.544700219815166e-06,
      "longitude_deg": -103.33647422355222,
      "height_km": 609.8681445264762,
      "semi_major_axis_km": 6994.481241786105,
      "eccentricity": 0.00168186,
      "inclination_deg": 49.9982,
      "raan_deg": 240.47,
      "arg_perigee_deg": 306.6568,
      "mean_anomaly_deg": 53.2824,
      "mean_motion_rev_day": 14.84121639
    }
  ]
}